OBJECT_NAME,OBJECT_ID,EPOCH,MEAN_MOTION,ECCENTRICITY,INCLINATION,RA_OF_ASC_NODE,ARG_OF_PERICENTER,MEAN_ANOMALY,EPHEMERIS_TYPE,CLASSIFICATION_TYPE,NORAD_CAT_ID,ELEMENT_SET_NO,REV_AT_EPOCH,BSTAR,MEAN_MOTION_DOT,MEAN_MOTION_DDOT
BEIDOU-3S IGSO-1S (C31),2015-019A,2026-07-02T19:12:21.705408,1.00680073,.00768606,49.1798,295.2769,219.1125,144.2493,0,U,40549,999,4123,0,-.19E-5,0
GPS BIIF-10 (PRN 08),2015-033A,2026-07-18T15:11:07.010592,2.00554643,.0115411,53.9587,265.7885,30.2892,330.4453,0,U,40730,999,8062,0,-.34E-6,0
BEIDOU-3S M2S (C58),2015-037A,2026-07-18T11:11:44.324736,1.86231856,.0009499,54.8412,300.9692,256.6146,103.3161,0,U,40748,999,7470,0,-.89E-6,0
BEIDOU-3S M1S (C57),2015-037B,2026-07-18T03:11:45.634848,1.86254870,.0002669,54.8378,300.9676,62.8642,297.1994,0,U,40749,999,7470,0,-.87E-6,0
GSAT0206 (GALILEO 10),2015-045B,2026-07-16T18:52:25.755744,1.70473544,.0002263,54.9385,220.7865,327.7315,32.3020,0,U,40890,999,6754,0,.48E-6,0
BEIDOU-3S IGSO-2S (C56),2015-053A,2026-07-17T15:25:26.719968,1.00252524,.0066282,49.1745,258.4175,193.2835,168.3012,0,U,40938,999,3966,0,-.104E-5,0
GPS BIIF-11 (PRN 10),2015-062A,2026-07-18T16:29:49.657920,2.00567014,.0112994,56.9807,29.5985,230.8665,128.1581,0,U,41019,999,7846,0,-.86E-6,0
GSAT-15 (GAGAN/PRN 139),2015-065A,2026-07-18T18:02:38.634720,1.00272301,.0003507,0.1083,263.7579,176.1140,220.8418,0,U,41028,999,3911,0,-.264E-5,0
GSAT0209 (GALILEO 12),2015-079A,2026-07-16T22:54:53.934624,1.70473553,.0004723,55.8441,100.4450,356.6958,3.3383,0,U,41174,999,6528,0,-.27E-6,0
GSAT0208 (GALILEO 11),2015-079B,2026-07-14T19:53:24.793152,1.70473443,.00043604,55.8401,100.5005,357.6027,2.4215,0,U,41175,999,6566,0,-.28E-6,0
IRNSS-1E,2016-003A,2026-07-18T14:25:22.354752,1.00276269,.0019245,33.2996,59.2938,176.3205,28.9297,0,U,41241,999,3839,0,-.316E-5,0
GPS BIIF-12 (PRN 32),2016-007A,2026-07-17T18:45:18.355680,2.00575307,.00966316,55.5427,88.2463,247.5999,111.4284,0,U,41328,999,7645,0,-.31E-6,0
COSMOS 2514 (751),2016-008A,2026-07-18T17:24:53.172288,2.13102626,.0012428,65.0007,311.9242,201.6103,158.3594,0,U,41330,999,8129,0,-.74E-6,0
BEIDOU-2 IGSO-6 (C13),2016-021A,2026-06-26T02:38:38.671584,1.00258926,.0057558,60.2385,37.9495,231.0163,137.2672,0,U,41434,999,3757,0,-.145E-5,0
IRNSS-1G,2016-027A,2026-07-18T18:58:02.618112,1.00269117,.0005952,5.2714,96.7435,12.2944,241.7206,0,U,41469,999,3749,0,-.343E-5,0
GSAT0211 (GALILEO 14),2016-030A,2026-07-16T17:05:27.607776,1.70473723,.00034382,55.0897,220.8821,318.8981,41.1241,0,U,41549,999,6317,0,.49E-6,0
GSAT0210 (GALILEO 13),2016-030B,2026-07-16T23:15:53.165376,1.70473885,.00047215,55.0882,220.8733,246.2569,113.7400,0,U,41550,999,6317,0,.48E-6,0
BEIDOU-2 G7 (C03),2016-037A,2026-07-18T17:13:38.693280,1.00271694,.0005938,1.7966,69.5392,0.3087,235.6358,0,U,41586,999,720,0,-.361E-5,0
EUTELSAT 117 WEST B (WAAS/PRN 131),2016-038B,2026-07-18T09:14:47.988960,1.00271609,.00001636,0.0115,198.1908,318.2964,161.4185,0,U,41589,999,3697,0,-.19E-6,0
GSAT0207 (GALILEO 15),2016-069A,2026-07-18T10:06:29.594304,1.70473613,.0004595,55.5165,100.2217,338.4837,21.5364,0,U,41859,999,5993,0,-.32E-6,0
GSAT0212 (GALILEO 16),2016-069B,2026-07-14T18:07:16.719168,1.70473579,.00043837,55.5126,100.3182,15.0007,345.0382,0,U,41860,999,6012,0,-.28E-6,0
GSAT0213 (GALILEO 17),2016-069C,2026-07-13T08:41:54.440160,1.70474037,.00041264,55.5134,100.3648,318.6741,41.3115,0,U,41861,999,5996,0,-.31E-6,0
GSAT0214 (GALILEO 18),2016-069D,2026-07-14T02:17:14.544672,1.70473685,.00032961,55.5122,100.3371,333.1197,26.8847,0,U,41862,999,6010,0,-.3E-6,0
SES-15 (WAAS/PRN 133),2017-026A,2026-07-18T14:15:38.763360,1.00268239,.0000419,0.0275,325.4278,131.0445,284.6731,0,U,42709,999,774,0,.53E-6,0
QZS-2 (QZSS/PRN 194),2017-028A,2026-07-18T10:31:10.662240,1.00275918,.07571283,39.3821,242.6931,269.6378,84.1694,0,U,42738,999,794,0,-.149E-5,0
QZS-3 (QZSS/PRN 199),2017-048A,2026-07-18T17:15:05.219424,1.00270737,.000268,0.0609,210.7122,276.0018,195.6121,0,U,42917,999,3257,0,-.355E-5,0
COSMOS 2522 (752),2017-055A,2026-07-18T02:15:19.099584,2.13101776,.0010876,64.0809,190.8323,240.6480,119.2397,0,U,42939,999,6863,0,.6E-6,0
QZS-4 (QZSS/PRN 195),2017-062A,2026-07-18T15:12:46.469952,1.00289733,.0747101,40.0895,343.0840,268.6460,52.1747,0,U,42965,999,3211,0,-.358E-5,0
BEIDOU-3 M1 (C19),2017-069A,2026-07-15T01:18:53.436096,1.86230827,.00092673,56.7163,62.1672,328.5335,31.4861,0,U,43001,999,5912,0,-.4E-6,0
BEIDOU-3 M2 (C20),2017-069B,2026-07-17T03:23:50.222400,1.86231037,.00058447,56.7180,62.1334,63.7447,296.3868,0,U,43002,999,5915,0,-.54E-6,0
GSAT0215 (GALILEO 19),2017-079A,2026-07-18T02:30:12.354624,1.70474397,.00037466,55.0669,220.6554,268.2845,91.7130,0,U,43055,999,5351,0,.47E-6,0
